     3.03           N                   G                   RINEX VERSION / TYPE
GECCO V3.2.1.1      NTMF 3.2.1          20240207 012911     PGM / RUN BY / DATE
GPUT  0.0000000000E+00-4.440892099E-15 233472 2300          TIME SYSTEM CORR
GPSA   1.9558E-08  0.0000E+00 -5.9605E-08  1.1921E-07       IONOSPHERIC CORR
GPSB   1.3517E+05 -1.1469E+05  6.5536E+04 -2.6214E+05       IONOSPHERIC CORR
    18                                                      LEAP SECONDS
                                                            END OF HEADER
G13 2024 02 04 08 00 00 6.223265081644E-04 3.637978807092E-12 0.000000000000E+00
     2.100000000000E+01-2.200000000000E+01 4.552332480063E-09 1.238515429688E+00
    -1.078471541405E-06 7.782279630192E-03 7.670372724533E-06 5.153653375626E+03
     2.880000000000E+04-1.192092895508E-07-2.126777722543E-02 9.499490261078E-08
     9.712742275273E-01 2.383437500000E+02 9.429105178821E-01-7.974975046864E-09
     1.650068731986E-10 1.000000000000E+00 2.300000000000E+03 0.000000000000E+00
     2.000000000000E+00 0.000000000000E+00-1.117587089539E-08 2.100000000000E+01
     2.160000000000E+04 4.000000000000E+00
G14 2024 02 04 08 00 00 3.166724927723E-04 1.011812855722E-11 0.000000000000E+00
     1.010000000000E+02 6.781250000000E+01 4.633050127992E-09-1.990463289483E+00
     3.473833203316E-06 3.921880270354E-03 8.562579751015E-06 5.153687189102E+03
     2.880000000000E+04-5.587935447693E-08 1.959523634185E+00-2.980232238770E-08
     9.463113825589E-01 2.087187500000E+02-2.963547241764E+00-7.952474109610E-09
    -1.603638226540E-10 1.000000000000E+00 2.300000000000E+03 0.000000000000E+00
     2.000000000000E+00 0.000000000000E+00-7.916241884232E-09 8.690000000000E+02
     2.160000000000E+04 4.000000000000E+00
G15 2024 02 04 08 00 00 1.241504214704E-04 3.865352482535E-12 0.000000000000E+00
     1.030000000000E+02-3.028125000000E+01 5.401653571982E-09 5.692945003267E-01
    -1.369044184685E-06 1.543215499260E-02 8.037313818932E-06 5.153598112106E+03
     2.880000000000E+04-1.676380634308E-07-3.103117998806E-01 3.352761268616E-08
     9.347290563600E-01 2.152500000000E+02 1.289458339230E+00-8.587500561011E-09
     2.053656971627E-10 1.000000000000E+00 2.300000000000E+03 0.000000000000E+00
     2.000000000000E+00 0.000000000000E+00-1.024454832077E-08 1.030000000000E+02
     2.160000000000E+04 4.000000000000E+00
G16 2024 02 04 08 00 00-3.700787201524E-04 8.071765478235E-12 0.000000000000E+00
     7.600000000000E+01 6.268750000000E+01 4.291964491834E-09 2.531292811123E+00
     3.108754754066E-06 1.399203517940E-02 9.020790457726E-06 5.153729558945E+03
     2.880000000000E+04-3.725290298462E-09 2.020185113756E+00-2.235174179077E-07
     9.625560857303E-01 2.064687500000E+02 8.217989679571E-01-7.716035689572E-09
    -1.917937032633E-10 1.000000000000E+00 2.300000000000E+03 0.000000000000E+00
     2.000000000000E+00 0.000000000000E+00-1.024454832077E-08 7.600000000000E+01
     2.160000000000E+04 4.000000000000E+00
G17 2024 02 04 08 00 00 7.180245593190E-04-1.136868377216E-12 0.000000000000E+00
     4.100000000000E+01 5.925000000000E+01 4.217318525387E-09 1.587415823727E+00
     2.948567271233E-06 1.360727392603E-02 4.142522811890E-06 5.153665676117E+03
     2.880000000000E+04 2.589076757431E-07 3.041219544464E+00-3.203749656677E-07
     9.709247437128E-01 3.004687500000E+02-1.338497284299E+00-8.013905239892E-09
     8.714648714384E-11 1.000000000000E+00 2.300000000000E+03 0.000000000000E+00
     2.000000000000E+00 0.000000000000E+00-1.117587089539E-08 4.100000000000E+01
     2.160000000000E+04 4.000000000000E+00
G18 2024 02 04 08 00 00-5.478947423398E-04-8.640199666843E-12 0.000000000000E+00
     1.520000000000E+02-4.418750000000E+01 4.225533153274E-09-4.911905095192E-01
    -2.298504114151E-06 3.833105671220E-03 3.727152943611E-06 5.153630208969E+03
     2.880000000000E+04 1.154839992523E-07-2.237876372099E+00 3.352761268616E-08
     9.744620986464E-01 3.137812500000E+02-3.021393780219E+00-8.158554122241E-09
    -1.785788670980E-11 1.000000000000E+00 2.300000000000E+03 0.000000000000E+00
     2.000000000000E+00 0.000000000000E+00-8.381903171539E-09 1.520000000000E+02
     2.160000000000E+04 4.000000000000E+00
G19 2024 02 04 08 00 00 4.358938895166E-04 5.229594535194E-12 0.000000000000E+00
     4.200000000000E+01 6.534375000000E+01 4.206960951096E-09-2.654087666273E+00
     3.660097718239E-06 9.449122357182E-03 3.831461071968E-06 5.153687234879E+03
     2.880000000000E+04-8.195638656616E-08 3.085590986496E+00 5.774199962616E-08
     9.700862561235E-01 3.085000000000E+02 2.476246173524E+00-7.997475984119E-09
     1.050043738536E-10 1.000000000000E+00 2.300000000000E+03 0.000000000000E+00
     2.000000000000E+00 0.000000000000E+00-1.536682248116E-08 4.200000000000E+01
     2.160000000000E+04 4.000000000000E+00
G20 2024 02 04 08 00 00 3.887927159667E-04-1.477928890381E-12 0.000000000000E+00
     8.900000000000E+01-8.253125000000E+01 4.714482091388E-09 1.020305177749E-01
    -4.231929779053E-06 3.916456364095E-03 8.039176464081E-06 5.153713100433E+03
     2.880000000000E+04 1.490116119385E-08-1.382991231090E+00 5.587935447693E-08
     9.520003564418E-01 2.220937500000E+02-2.643523308694E+00-8.164268645988E-09
     1.703642392115E-10 1.000000000000E+00 2.300000000000E+03 0.000000000000E+00
     2.000000000000E+00 0.000000000000E+00-8.381903171539E-09 8.900000000000E+01
     2.160000000000E+04 4.000000000000E+00
G21 2024 02 04 08 00 00 1.361439935863E-04-1.364242052659E-12 0.000000000000E+00
     5.000000000000E+01-1.996875000000E+01 4.447328106210E-09 1.498528805660E+00
    -1.166015863419E-06 2.527617546730E-02 2.795830368996E-06 5.153729665756E+03
     2.880000000000E+04 3.818422555923E-07-2.345889219794E+00 2.272427082062E-07
     9.618731048700E-01 3.212500000000E+02-6.361768868866E-01-8.059621429869E-09
    -2.464388365953E-10 1.000000000000E+00 2.300000000000E+03 0.000000000000E+00
     2.000000000000E+00 0.000000000000E+00-1.024454832077E-08 5.000000000000E+01
     2.160000000000E+04 4.000000000000E+00
G22 2024 02 04 08 00 00 3.689201548696E-05-6.252776074689E-12 0.000000000000E+00
     4.300000000000E+01 8.093750000000E+01 4.200889269614E-09 2.103109472300E+00
     4.149973392487E-06 1.457608363125E-02 8.452683687210E-06 5.153720764160E+03
     2.880000000000E+04 2.104789018631E-07 2.023486342008E+00 1.005828380585E-07
     9.618543400198E-01 2.133750000000E+02-1.143043839290E+00-7.590673324869E-09
    -2.696540893180E-10 1.000000000000E+00 2.300000000000E+03 0.000000000000E+00
     2.000000000000E+00 0.000000000000E+00-1.117587089539E-08 4.300000000000E+01
     2.160000000000E+04 4.000000000000E+00
G23 2024 02 04 08 00 00 1.489878632128E-04 7.844391802792E-12 0.000000000000E+00
     1.960000000000E+02-7.959375000000E+01 4.066597961557E-09-1.585733936069E+00
    -4.127621650696E-06 3.978718654253E-03 7.778406143188E-06 5.153706640244E+03
     2.880000000000E+04 4.656612873077E-08-1.237225678684E+00-2.235174179077E-08
     9.773925371452E-01 2.385625000000E+02-2.966042225141E+00-7.782824185867E-09
     2.250093725435E-10 1.000000000000E+00 2.300000000000E+03 0.000000000000E+00
     2.000000000000E+00 0.000000000000E+00-8.381903171539E-09 4.520000000000E+02
     2.160000000000E+04 4.000000000000E+00
G24 2024 02 04 08 00 00-4.259422421455E-04-6.480149750132E-12 0.000000000000E+00
     2.100000000000E+01 3.750000000000E-01 5.487728585923E-09-2.463218291158E-01
     1.303851604462E-07 1.508890150581E-02 7.400289177895E-06 5.153723087311E+03
     2.880000000000E+04-3.725290298462E-09 7.913583520518E-01 1.918524503708E-07
     9.339157236471E-01 2.224687500000E+02 9.663118499444E-01-8.613215917873E-09
    -2.121516941125E-10 1.000000000000E+00 2.300000000000E+03 0.000000000000E+00
     2.000000000000E+00 0.000000000000E+00 2.328306436539E-09 2.100000000000E+01
     2.160000000000E+04 4.000000000000E+00
G25 2024 02 04 08 00 00 4.875082522631E-04 1.250555214938E-12 0.000000000000E+00
     2.500000000000E+01 6.762500000000E+01 4.505901974618E-09-2.112725319147E+00
     3.485009074211E-06 1.180187892169E-02 9.115785360336E-06 5.153621017456E+03
     2.880000000000E+04 1.192092895508E-07 1.916908517471E+00-9.126961231232E-08
     9.508250875557E-01 1.967187500000E+02 1.071901976563E+00-7.798181968437E-09
    -1.950081228711E-10 1.000000000000E+00 2.300000000000E+03 0.000000000000E+00
     2.000000000000E+00 0.000000000000E+00 5.587935447693E-09 2.500000000000E+01
     2.160000000000E+04 4.000000000000E+00
G26 2024 02 04 08 00 00 1.937663182616E-04-3.865352482535E-12 0.000000000000E+00
     5.200000000000E+01 4.909375000000E+01 5.030923843886E-09-2.922981348511E+00
     2.516433596611E-06 8.809251710773E-03 9.028241038322E-06 5.153583215714E+03
     2.880000000000E+04-2.607703208923E-08 1.856514212092E+00-6.891787052155E-08
     9.315708327387E-01 1.909375000000E+02 5.262191876214E-01-8.106766250783E-09
    -2.214377952016E-10 1.000000000000E+00 2.300000000000E+03 0.000000000000E+00
     2.000000000000E+00 0.000000000000E+00 6.984919309616E-09 5.200000000000E+01
     2.160000000000E+04 4.000000000000E+00
G27 2024 02 04 08 00 00-9.438954293728E-07-3.524291969370E-12 0.000000000000E+00
     1.210000000000E+02 7.268750000000E+01 4.409112228651E-09 1.652007953517E+00
     3.702938556671E-06 1.232488534879E-02 5.304813385010E-06 5.153681222916E+03
     2.880000000000E+04-2.533197402954E-07 2.973802383812E+00 8.754432201385E-08
     9.641574061003E-01 2.798125000000E+02 7.546206769573E-01-8.229985669080E-09
    -1.571494030463E-11 1.000000000000E+00 2.300000000000E+03 0.000000000000E+00
     2.800000000000E+00 0.000000000000E+00 1.862645149231E-09 1.210000000000E+02
     2.160000000000E+04 4.000000000000E+00
